STARLINK-32593          
1 61974U 24210R   26068.28724928  .00038891  00000+0  14146-2 0  9996
2 61974  43.0026 182.5093 0002841 295.6911  64.3648 15.27595378 74813
TEVEL2-9                
1 63237U 25052AD  26068.70229538  .00018694  00000+0  67240-3 0  9992
2 63237  97.4057 324.3929 0007990 124.2475 235.9522 15.28633834 54816
